IRIDIUM 63              
1 25286U 98021B   25084.17252595  .00001141  00000+0  38284-3 0  9992
2 25286  86.3946 117.3907 0002289  95.8472 264.2986 14.36442538412054
IRIDIUM 69              
1 25319U 98026A   25083.88675924  .00001459  00000+0  44960-3 0  9996
2 25319  86.3970 131.0528 0001169  18.3506 341.7736 14.40845970411161
IRIDIUM 71              
1 25320U 98026B   25084.52996086  .00001203  00000+0  36815-3 0  9992
2 25320  86.3955 125.4878 0003169  49.6197 310.5279 14.41051018411794
IRIDIUM 73              
1 25344U 98032C   25084.10343673  .00002265  00000+0  56138-3 0  9996
2 25344  86.4353  82.5325 0001785  86.1874 273.9536 14.51542776418661
IRIDIUM 82              
1 25467U 98051A   25084.17643972  .00048253  00000+0  15898-2 0  9999
2 25467  86.3727 150.8867 0092315 253.6703 105.4377 15.27169335411117
